{"fetched_at":"2026-03-30T06:02:59Z","count":15439,"tles":[{"name":"STARLINK-11607 [DTC]","line1":"1 63140U 25043J   26087.50113260  .00126585  00000+0  97329-3 0  9998","line2":"2 63140  43.0031 137.0594 0001433 293.0453  67.0264 15.70883133 62432","category":"Starlink"}]}